OBJECT_NAME,OBJECT_ID,EPOCH,MEAN_MOTION,ECCENTRICITY,INCLINATION,RA_OF_ASC_NODE,ARG_OF_PERICENTER,MEAN_ANOMALY,EPHEMERIS_TYPE,CLASSIFICATION_TYPE,NORAD_CAT_ID,ELEMENT_SET_NO,REV_AT_EPOCH,BSTAR,MEAN_MOTION_DOT,MEAN_MOTION_DDOT
STARLINK-37733,2026-122A,2026-06-27T22:00:01.999584,15.46281517,.00022902,97.2850,208.6426,100.6400,139.7653,0,U,69329,999,507,-.53441557E-1,-.2348335E-1,0
STARLINK-37772,2026-122B,2026-06-27T22:00:01.999584,15.41702051,.00020574,97.2843,208.6745,91.4862,213.3026,0,U,69330,999,502,-.63407771E-1,-.2380246E-1,0
STARLINK-37768,2026-122C,2026-06-27T20:08:40.044768,15.49221324,.00010292,97.2843,208.4919,93.1159,267.0210,0,U,69331,999,381,.60303111E-3,.32881E-3,0
STARLINK-37833,2026-122D,2026-06-27T22:30:54.696384,15.49204208,.00012039,97.2846,208.6634,91.4306,268.7083,0,U,69332,999,383,.66960943E-3,.36516E-3,0
STARLINK-37818,2026-122E,2026-06-27T19:36:46.873152,15.49208367,.00004882,97.2851,208.5219,101.0889,259.0417,0,U,69333,999,381,.1060852E-2,.58072E-3,0
STARLINK-37868,2026-122F,2026-06-27T22:00:01.999584,15.40654713,.00015168,97.2847,208.6969,72.2226,276.2330,0,U,69334,999,507,-.44609136E-1,-.1627365E-1,0
STARLINK-37877,2026-122G,2026-06-27T15:32:50.778816,15.49205697,.00015173,97.2850,208.2933,91.4591,268.6834,0,U,69335,999,378,.28103817E-3,.15233E-3,0
STARLINK-37791,2026-122H,2026-06-27T19:23:52.361088,15.49201519,.00020882,97.2847,208.5338,89.6812,270.4679,0,U,69336,999,381,.77585127E-3,.42353E-3,0
STARLINK-37765,2026-122J,2026-06-27T22:00:01.999584,15.33375949,.00012178,97.2843,208.7275,73.5798,358.9679,0,U,69337,999,512,.16772969E-2,.54347E-3,0
STARLINK-37788,2026-122K,2026-06-27T15:35:37.489344,15.49216006,.00002334,97.2852,208.2909,64.7296,295.3979,0,U,69338,999,378,.39738416E-3,.21601E-3,0
STARLINK-37743,2026-122L,2026-06-27T19:31:07.236480,15.49202601,.0001727,97.2849,208.5266,91.6836,268.4613,0,U,69339,999,381,.67623825E-3,.36879E-3,0
STARLINK-37780,2026-122M,2026-06-27T15:56:06.915552,15.49209231,.00012701,97.2845,208.4241,78.5959,281.5435,0,U,69340,999,379,.90053215E-3,.49229E-3,0
STARLINK-37781,2026-122N,2026-06-27T15:37:18.430464,15.49197792,.00006391,97.2850,208.2888,67.5890,292.5429,0,U,69341,999,378,.90878142E-3,.49663E-3,0
STARLINK-37782,2026-122P,2026-06-27T22:00:01.999584,15.47457765,.00019067,97.2845,208.7316,50.5450,32.4283,0,U,69342,999,507,-.5348483E-1,-.2436957E-1,0
STARLINK-37776,2026-122Q,2026-06-27T22:00:01.999584,15.48558384,.00018571,97.2845,208.7215,52.8395,13.0954,0,U,69343,999,507,-.52926487E-1,-.2498417E-1,0
STARLINK-37786,2026-122R,2026-06-27T22:28:10.665984,15.49216022,.00009118,97.2845,208.6679,105.1001,255.0351,0,U,69344,999,383,.73887842E-3,.40339E-3,0
STARLINK-37785,2026-122S,2026-06-27T22:00:01.999584,15.49159995,.00010162,97.2841,208.7258,83.9502,352.7993,0,U,69345,999,507,.73390363E-3,.39986E-3,0
STARLINK-37773,2026-122T,2026-06-27T15:57:22.745376,15.49223208,.00014394,97.2847,208.4234,81.2383,278.9031,0,U,69346,999,379,.87778835E-3,.47999E-3,0
STARLINK-37744,2026-122U,2026-06-27T20:10:29.203392,15.49205910,.00007143,97.2846,208.4913,87.9008,272.2325,0,U,69347,999,381,.7454221E-3,.40684E-3,0
STARLINK-37775,2026-122V,2026-06-27T15:56:53.441952,15.49202135,.00017105,97.2845,208.4246,72.0653,288.0784,0,U,69348,999,379,.44607059E-3,.24256E-3,0
STARLINK-37777,2026-122W,2026-06-27T15:55:27.753888,15.49213304,.00006875,97.2847,208.4255,98.9974,261.1355,0,U,69349,999,379,.58797124E-3,.32044E-3,0
STARLINK-37779,2026-122X,2026-06-27T22:00:01.999584,15.49116679,.00012651,97.2846,208.7201,83.8019,331.6156,0,U,69350,999,507,.19870327E-2,.109213E-2,0
STARLINK-37549,2026-122Y,2026-06-27T19:37:38.921376,15.49205034,.0001131,97.2852,208.5224,96.9865,263.1515,0,U,69351,999,381,.1003729E-2,.54912E-3,0
STARLINK-37778,2026-122Z,2026-06-27T13:14:08.528640,15.49222415,.0000211,97.2848,208.2732,70.2107,289.9167,0,U,69352,999,377,.11981515E-2,.65695E-3,0
STARLINK-37651,2026-123A,2026-06-27T22:00:01.999584,15.80803974,.00009691,53.1558,188.0334,94.8453,249.7333,0,U,69353,999,488,.69214412E-3,.137666E-2,0
STARLINK-37652,2026-123B,2026-06-27T17:32:29.895648,15.80927192,.00006128,53.1556,188.9786,116.6369,243.4716,0,U,69354,999,370,.1059777E-2,.214276E-2,0
STARLINK-37593,2026-123C,2026-06-27T22:00:01.999584,15.80776165,.0000578,53.1557,188.0358,137.2864,205.7882,0,U,69355,999,493,.63779702E-3,.126473E-2,0
STARLINK-37597,2026-123D,2026-06-27T22:00:01.999584,15.75215705,.00009429,53.1584,188.1943,92.7885,173.2925,0,U,69356,999,493,.12108747E-3,.17942E-3,0
STARLINK-37598,2026-123E,2026-06-27T12:52:47.128512,15.80966658,.00028949,53.1553,189.8981,37.0684,323.0538,0,U,69357,999,367,.1565906E-2,.321547E-2,0
STARLINK-37602,2026-123F,2026-06-27T07:49:01.431264,15.75411521,.00028151,53.1578,191.4454,108.0414,252.0913,0,U,69358,999,363,.1999744E-2,.320197E-2,0
