STARLINK-37733          
1 69329U 26122A   26178.91668981 -.02348335  00000+0 -53442-1 0  9992
2 69329  97.2850 208.6426 0002290 100.6400 139.7653 15.46281517  5070
STARLINK-37772          
1 69330U 26122B   26178.91668981 -.02380246  00000+0 -63408-1 0  9994
2 69330  97.2843 208.6745 0002057  91.4862 213.3026 15.41702051  5022
STARLINK-37768          
1 69331U 26122C   26178.83935237  .00032881  00000+0  60303-3 0  9995
2 69331  97.2843 208.4919 0001029  93.1159 267.0210 15.49221324  3813
STARLINK-37833          
1 69332U 26122D   26178.93813306  .00036516  00000+0  66961-3 0  9994
2 69332  97.2846 208.6634 0001203  91.4306 268.7083 15.49204208  3832
STARLINK-37818          
1 69333U 26122E   26178.81720918  .00058072  00000+0  10609-2 0  9996
2 69333  97.2851 208.5219 0000488 101.0889 259.0417 15.49208367  3817
STARLINK-37868          
1 69334U 26122F   26178.91668981 -.01627365  00000+0 -44609-1 0  9995
2 69334  97.2847 208.6969 0001516  72.2226 276.2330 15.40654713  5079
STARLINK-37877          
1 69335U 26122G   26178.64780994  .00015233  00000+0  28104-3 0  9991
2 69335  97.2850 208.2933 0001517  91.4591 268.6834 15.49205697  3782
STARLINK-37791          
1 69336U 26122H   26178.80824492  .00042353  00000+0  77585-3 0  9992
2 69336  97.2847 208.5338 0002088  89.6812 270.4679 15.49201519  3811
STARLINK-37765          
1 69337U 26122J   26178.91668981  .00054347  00000+0  16773-2 0  9991
2 69337  97.2843 208.7275 0001217  73.5798 358.9679 15.33375949  5128
STARLINK-37788          
1 69338U 26122K   26178.64973946  .00021601  00000+0  39738-3 0  9996
2 69338  97.2852 208.2909 0000233  64.7296 295.3979 15.49216006  3782
STARLINK-37743          
1 69339U 26122L   26178.81327820  .00036879  00000+0  67624-3 0  9998
2 69339  97.2849 208.5266 0001727  91.6836 268.4613 15.49202601  3812
STARLINK-37780          
1 69340U 26122M   26178.66396893  .00049229  00000+0  90053-3 0  9994
2 69340  97.2845 208.4241 0001270  78.5959 281.5435 15.49209231  3796
STARLINK-37781          
1 69341U 26122N   26178.65090776  .00049663  00000+0  90878-3 0  9992
2 69341  97.2850 208.2888 0000639  67.5890 292.5429 15.49197792  3780
STARLINK-37782          
1 69342U 26122P   26178.91668981 -.02436957  00000+0 -53485-1 0  9992
2 69342  97.2845 208.7316 0001906  50.5450  32.4283 15.47457765  5078
STARLINK-37776          
1 69343U 26122Q   26178.91668981 -.02498417  00000+0 -52926-1 0  9991
2 69343  97.2845 208.7215 0001857  52.8395  13.0954 15.48558384  5075
STARLINK-37786          
1 69344U 26122R   26178.93623456  .00040339  00000+0  73888-3 0  9996
2 69344  97.2845 208.6679 0000911 105.1001 255.0351 15.49216022  3837
STARLINK-37785          
1 69345U 26122S   26178.91668981  .00039986  00000+0  73390-3 0  9991
2 69345  97.2841 208.7258 0001016  83.9502 352.7993 15.49159995  5074
STARLINK-37773          
1 69346U 26122T   26178.66484659  .00047999  00000+0  87779-3 0  9991
2 69346  97.2847 208.4234 0001439  81.2383 278.9031 15.49223208  3797
STARLINK-37744          
1 69347U 26122U   26178.84061578  .00040684  00000+0  74542-3 0  9991
2 69347  97.2846 208.4913 0000714  87.9008 272.2325 15.49205910  3819
STARLINK-37775          
1 69348U 26122V   26178.66450743  .00024256  00000+0  44607-3 0  9994
2 69348  97.2845 208.4246 0001710  72.0653 288.0784 15.49202135  3793
STARLINK-37777          
1 69349U 26122W   26178.66351567  .00032044  00000+0  58797-3 0  9998
2 69349  97.2847 208.4255 0000687  98.9974 261.1355 15.49213304  3797
STARLINK-37779          
1 69350U 26122X   26178.91668981  .00109213  00000+0  19870-2 0  9990
2 69350  97.2846 208.7201 0001265  83.8019 331.6156 15.49116679  5070
STARLINK-37549          
1 69351U 26122Y   26178.81781159  .00054912  00000+0  10037-2 0  9994
2 69351  97.2852 208.5224 0001131  96.9865 263.1515 15.49205034  3819
STARLINK-37778          
1 69352U 26122Z   26178.55148760  .00065695  00000+0  11982-2 0  9991
2 69352  97.2848 208.2732 0000211  70.2107 289.9167 15.49222415  3774
STARLINK-37651          
1 69353U 26123A   26178.91668981  .00137666  00000+0  69214-3 0  9995
2 69353  53.1558 188.0334 0000969  94.8453 249.7333 15.80803974  4885
STARLINK-37652          
1 69354U 26123B   26178.73090157  .00214276  00000+0  10598-2 0  9993
2 69354  53.1556 188.9786 0000612 116.6369 243.4716 15.80927192  3703
STARLINK-37593          
1 69355U 26123C   26178.91668981  .00126473  00000+0  63780-3 0  9993
2 69355  53.1557 188.0358 0000578 137.2864 205.7882 15.80776165  4934
STARLINK-37597          
1 69356U 26123D   26178.91668981  .00017942  00000+0  12109-3 0  9993
2 69356  53.1584 188.1943 0000942  92.7885 173.2925 15.75215705  4938
STARLINK-37598          
1 69357U 26123E   26178.53665658  .00321547  00000+0  15659-2 0  9991
2 69357  53.1553 189.8981 0002894  37.0684 323.0538 15.80966658  3673
STARLINK-37602          
1 69358U 26123F   26178.32571101  .00320197  00000+0  19997-2 0  9997
2 69358  53.1578 191.4454 0002815 108.0414 252.0913 15.75411521  3630
